[{"OBJECT_NAME":"NUSHSAT1","OBJECT_ID":"2025-052B","EPOCH":"2026-03-09T15:31:41.225952","MEAN_MOTION":15.31903202,"ECCENTRICITY":0.0005501,"INCLINATION":97.4095,"RA_OF_ASC_NODE":325.7239,"ARG_OF_PERICENTER":84.7512,"MEAN_ANOMALY":275.4357,"EPHEMERIS_TYPE":0,"CLASSIFICATION_TYPE":"U","NORAD_CAT_ID":63211,"ELEMENT_SET_NO":999,"REV_AT_EPOCH":5488,"BSTAR":0.00074857,"MEAN_MOTION_DOT":0.00023034,"MEAN_MOTION_DDOT":0},{"OBJECT_NAME":"STARLINK-35071","OBJECT_ID":"2025-195V","EPOCH":"2026-03-09T21:39:41.323968","MEAN_MOTION":15.30209042,"ECCENTRICITY":8.214e-5,"INCLINATION":53.1599,"RA_OF_ASC_NODE":257.3746,"ARG_OF_PERICENTER":78.6554,"MEAN_ANOMALY":281.4539,"EPHEMERIS_TYPE":0,"CLASSIFICATION_TYPE":"U","NORAD_CAT_ID":65477,"ELEMENT_SET_NO":999,"REV_AT_EPOCH":3000,"BSTAR":0.001273544,"MEAN_MOTION_DOT":0.00037561,"MEAN_MOTION_DDOT":0}]
