NUSHSAT1                
1 63211U 25052B   26068.64700493  .00023034  00000+0  74857-3 0  9997
2 63211  97.4095 325.7239 0005501  84.7512 275.4357 15.31903202 54882
STARLINK-35071          
1 65477U 25195V   26068.90256162  .00037561  00000+0  12735-2 0  9995
2 65477  53.1599 257.3746 0000821  78.6554 281.4539 15.30209042 30004
